NORAD_CAT_ID,OBJECT_NAME,OBJECT_TYPE,EPOCH,MEAN_MOTION,ECCENTRICITY,INCLINATION,RA_OF_ASC_NODE,ARG_OF_PERICENTER,MEAN_ANOMALY,BSTAR,MEAN_MOTION_DOT,MEAN_MOTION_DDOT,TLE_LINE0,TLE_LINE1,TLE_LINE2,SEMIMAJOR_AXIS,PERIOD,APOGEE,PERIGEE,DECAYED
55779.0,STARLINK-5817,PAYLOAD,2023-10-27 03:57:36,14.98416571,0.0001991,70.0019,224.032,239.2355,120.8608,-0.0010751,-0.00012925,0.0,0 STARLINK-5817,1 55779U 23028AQ  23300.16500245 -.00012925  00000-0 -10751-2 0  9996,2 55779  70.0019 224.0320 0001991 239.2355 120.8608 14.98416571 37533,6949.925,96.101,573.174,570.406,0.0
55779.0,STARLINK-5817,PAYLOAD,2023-10-27 11:58:18,14.9833219,0.0002467,70.0017,223.1899,268.2581,91.8295,-1.3858e-05,-2.58e-06,0.0,0 STARLINK-5817,1 55779U 23028AQ  23300.49882718 -.00000258  00000-0 -13858-4 0  9999,2 55779  70.0017 223.1899 0002467 268.2581  91.8295 14.98332190 37582,6950.186,96.107,573.766,570.337,0.0
55779.0,STARLINK-5817,PAYLOAD,2023-10-27 21:35:07,14.98327935,0.0002515,70.0014,222.1807,265.5739,94.5133,2.3591e-06,-6.5e-07,0.0,0 STARLINK-5817,1 55779U 23028AQ  23300.89938841 -.00000065  00000-0  23591-5 0  9993,2 55779  70.0014 222.1807 0002515 265.5739  94.5133 14.98327935 37645,6950.199,96.107,573.812,570.316,0.0
55779.0,STARLINK-5817,PAYLOAD,2023-10-28 00:47:13,14.9846252,0.0002739,70.002,221.843,261.1243,98.9606,0.0013959,0.00016659,0.0,0 STARLINK-5817,1 55779U 23028AQ  23301.03279296  .00016659  00000-0  13959-2 0  9991,2 55779  70.0020 221.8430 0002739 261.1243  98.9606 14.98462520 37665,6949.783,96.098,573.552,569.745,0.0
55779.0,STARLINK-5817,PAYLOAD,2023-10-28 10:24:11,14.98335498,0.0002522,70.0016,220.8334,276.1766,83.9106,-5.7873e-05,-7.83e-06,0.0,0 STARLINK-5817,1 55779U 23028AQ  23301.43346408 -.00000783  00000-0 -57873-4 0  9993,2 55779  70.0016 220.8334 0002522 276.1766  83.9106 14.98335498 37727,6950.176,96.107,573.794,570.288,0.0
55779.0,STARLINK-5817,PAYLOAD,2023-10-28 12:00:20,14.98316872,0.0002619,70.0015,220.6654,268.4837,91.6022,-0.00018363,-2.282e-05,0.0,0 STARLINK-5817,1 55779U 23028AQ  23301.50023786 -.00002282  00000-0 -18363-3 0  9998,2 55779  70.0015 220.6654 0002619 268.4837  91.6022 14.98316872 37738,6950.233,96.108,573.919,570.278,0.0
55779.0,STARLINK-5817,PAYLOAD,2023-10-28 20:01:00,14.98323466,0.0002418,70.0016,219.8235,263.6108,96.4776,-0.00015757,-1.972e-05,0.0,0 STARLINK-5817,1 55779U 23028AQ  23301.83403511 -.00001972  00000-0 -15757-3 0  9991,2 55779  70.0016 219.8235 0002418 263.6108  96.4776 14.98323466 37780,6950.213,96.107,573.759,570.398,0.0
55779.0,STARLINK-5817,PAYLOAD,2023-10-28 21:37:08,14.98319742,0.0002737,70.0017,219.6546,269.9012,90.1834,-0.00016181,-2.023e-05,0.0,0 STARLINK-5817,1 55779U 23028AQ  23301.90079749 -.00002023  00000-0 -16181-3 0  9991,2 55779  70.0017 219.6546 0002737 269.9012  90.1834 14.98319742 37790,6950.225,96.108,573.992,570.187,0.0
55779.0,STARLINK-5817,PAYLOAD,2023-10-29 04:01:40,14.98328095,0.0002095,70.002,218.9822,271.934,88.1579,-6.5328e-05,-8.72e-06,0.0,0 STARLINK-5817,1 55779U 23028AQ  23302.16783152 -.00000872  00000-0 -65328-4 0  9998,2 55779  70.0020 218.9822 0002095 271.9340  88.1579 14.98328095 37836,6950.199,96.107,573.52,570.608,0.0
55779.0,STARLINK-5817,PAYLOAD,2023-10-29 12:02:21,14.98330212,0.0001729,70.0027,218.14,276.9666,83.1296,-0.00025791,-3.169e-05,0.0,0 STARLINK-5817,1 55779U 23028AQ  23302.50163616 -.00003169  00000-0 -25791-3 0  9994,2 55779  70.0027 218.1400 0001729 276.9666  83.1296 14.98330212 37886,6950.192,96.107,573.259,570.856,0.0
55779.0,STARLINK-5817,PAYLOAD,2023-10-29 21:39:09,14.9831964,0.0002554,70.0009,217.1295,269.2664,90.8202,-4.9059e-05,-6.78e-06,0.0,0 STARLINK-5817,1 55779U 23028AQ  23302.90219674 -.00000678  00000-0 -49059-4 0  9990,2 55779  70.0009 217.1295 0002554 269.2664  90.8202 14.98319640 37948,6950.225,96.108,573.865,570.315,0.0
55779.0,STARLINK-5817,PAYLOAD,2023-10-30 04:03:41,14.98315923,0.0002194,70.0016,216.4582,254.6005,105.4911,0.00011776,1.312e-05,0.0,0 STARLINK-5817,1 55779U 23028AQ  23303.16923561  .00001312  00000-0  11776-3 0  9994,2 55779  70.0016 216.4582 0002194 254.6005 105.4911 14.98315923 37988,6950.236,96.108,573.626,570.577,0.0
55779.0,STARLINK-5817,PAYLOAD,2023-10-30 21:41:10,14.9831753,0.0002515,70.0007,214.6055,270.2277,89.8594,9.1417e-05,9.98e-06,0.0,0 STARLINK-5817,1 55779U 23028AQ  23303.90359793  .00000998  00000-0  91417-4 0  9996,2 55779  70.0007 214.6055 0002515 270.2277  89.8594 14.98317530 38096,6950.231,96.108,573.844,570.348,0.0
55779.0,STARLINK-5817,PAYLOAD,2023-10-31 04:05:42,14.98326351,0.0002356,70.0008,213.9343,265.2533,94.8357,6.4764e-05,6.8e-06,0.0,0 STARLINK-5817,1 55779U 23028AQ  23304.17063423  .00000680  00000-0  64764-4 0  9991,2 55779  70.0008 213.9343 0002356 265.2533  94.8357 14.98326351 38130,6950.204,96.107,573.707,570.432,0.0
55779.0,STARLINK-5817,PAYLOAD,2023-10-31 21:43:11,14.98325549,0.0002588,70.0014,212.0814,270.9926,89.0936,9.5036e-05,1.041e-05,0.0,0 STARLINK-5817,1 55779U 23028AQ  23304.90499521  .00001041  00000-0  95036-4 0  9992,2 55779  70.0014 212.0814 0002588 270.9926  89.0936 14.98325549 38245,6950.207,96.107,573.87,570.273,0.0
55779.0,STARLINK-5817,PAYLOAD,2023-11-01 04:07:43,14.98332369,0.0002193,70.0015,211.4078,259.6891,100.4021,0.00012684,1.421e-05,0.0,0 STARLINK-5817,1 55779U 23028AQ  23305.17202999  .00001421  00000-0  12684-3 0  9992,2 55779  70.0015 211.4078 0002193 259.6891 100.4021 14.98332369 38283,6950.186,96.107,573.575,570.526,0.0
55779.0,STARLINK-5817,PAYLOAD,2023-11-01 10:32:15,14.9833135,0.0002272,70.0016,210.7358,270.4541,89.6358,3.3389e-05,3.06e-06,0.0,0 STARLINK-5817,1 55779U 23028AQ  23305.43907304  .00000306  00000-0  33389-4 0  9990,2 55779  70.0016 210.7358 0002272 270.4541  89.6358 14.98331350 38323,6950.189,96.107,573.633,570.475,0.0
55779.0,STARLINK-5817,PAYLOAD,2023-11-01 21:45:12,14.98328613,0.0002467,70.0015,209.5568,271.8356,88.252,5.3386e-05,5.44e-06,0.0,0 STARLINK-5817,1 55779U 23028AQ  23305.90639322  .00000544  00000-0  53386-4 0  9997,2 55779  70.0015 209.5568 0002467 271.8356  88.2520 14.98328613 38397,6950.197,96.107,573.777,570.348,0.0
55779.0,STARLINK-5817,PAYLOAD,2023-11-02 04:09:44,14.98331118,0.0002336,70.0014,208.8836,265.9203,94.1689,5.8622e-05,6.07e-06,0.0,0 STARLINK-5817,1 55779U 23028AQ  23306.17343131  .00000607  00000-0  58622-4 0  9995,2 55779  70.0014 208.8836 0002336 265.9203  94.1689 14.98331118 38437,6950.189,96.107,573.678,570.431,0.0
55779.0,STARLINK-5817,PAYLOAD,2023-11-02 10:34:16,14.98341791,0.0002625,70.0014,208.2093,273.4627,86.6232,-0.00018723,-2.327e-05,0.0,0 STARLINK-5817,1 55779U 23028AQ  23306.44046957 -.00002327  00000-0 -18723-3 0  9991,2 55779  70.0014 208.2093 0002625 273.4627  86.6232 14.98341791 38473,6950.156,96.106,573.846,570.197,0.0
55779.0,STARLINK-5817,PAYLOAD,2023-11-02 21:47:13,14.9833415,0.000237,70.0013,207.0321,269.4233,90.6655,-3.1291e-05,-4.66e-06,0.0,0 STARLINK-5817,1 55779U 23028AQ  23306.90779064 -.00000466  00000-0 -31291-4 0  9992,2 55779  70.0013 207.0321 0002370 269.4233  90.6655 14.98334150 38541,6950.18,96.107,573.692,570.398,0.0
55779.0,STARLINK-5817,PAYLOAD,2023-11-03 04:11:45,14.98337152,0.0002438,70.001,206.3589,269.6393,90.4486,1.8101e-06,-7.1e-07,0.0,0 STARLINK-5817,1 55779U 23028AQ  23307.17482669 -.00000071  00000-0  18101-5 0  9991,2 55779  70.0010 206.3589 0002438 269.6393  90.4486 14.98337152 38589,6950.171,96.107,573.73,570.341,0.0
55779.0,STARLINK-5817,PAYLOAD,2023-11-03 10:36:18,14.98302706,0.0002287,70.0009,205.6855,273.2574,86.8324,0.00049493,5.813e-05,0.0,0 STARLINK-5817,1 55779U 23028AQ  23307.44187683  .00005813  00000-0  49493-3 0  9993,2 55779  70.0009 205.6855 0002287 273.2574  86.8324 14.98302706 38621,6950.277,96.109,573.732,570.553,0.0
55779.0,STARLINK-5817,PAYLOAD,2023-11-03 18:36:57,14.98328301,0.0002459,70.0007,204.8437,269.4568,90.6309,7.6951e-07,-8.4e-07,0.0,0 STARLINK-5817,1 55779U 23028AQ  23307.77567067 -.00000084  00000-0  76951-6 0  9995,2 55779  70.0007 204.8437 0002459 269.4568  90.6309 14.98328301 38677,6950.198,96.107,573.772,570.354,0.0
55779.0,STARLINK-5817,PAYLOAD,2023-11-03 21:49:14,14.98327236,0.0002503,70.0009,204.5071,269.6037,90.4836,-1.283e-06,-1.08e-06,0.0,0 STARLINK-5817,1 55779U 23028AQ  23307.90919154 -.00000108  00000-0 -12830-5 0  9991,2 55779  70.0009 204.5071 0002503 269.6037  90.4836 14.98327236 38694,6950.201,96.107,573.806,570.327,0.0
55779.0,STARLINK-5817,PAYLOAD,2023-11-04 10:38:18,14.98328407,0.0002407,70.0018,203.1581,276.7718,83.3167,-9.1959e-05,-1.19e-05,0.0,0 STARLINK-5817,1 55779U 23028AQ  23308.44327319 -.00001190  00000-0 -91959-4 0  9997,2 55779  70.0018 203.1581 0002407 276.7718  83.3167 14.98328407 38771,6950.198,96.107,573.736,570.39,0.0
55779.0,STARLINK-5817,PAYLOAD,2023-11-04 20:15:07,14.98324664,0.0002635,70.0002,202.1497,270.3804,89.7053,-3.5489e-05,-5.16e-06,0.0,0 STARLINK-5817,1 55779U 23028AQ  23308.84383399 -.00000516  00000-0 -35489-4 0  9998,2 55779  70.0002 202.1497 0002635 270.3804  89.7053 14.98324664 38830,6950.209,96.107,573.906,570.243,0.0
55779.0,STARLINK-5817,PAYLOAD,2023-11-04 21:51:15,14.98324038,0.0002673,70.0005,201.9801,271.4502,88.6351,-1.1054e-05,-2.25e-06,0.0,0 STARLINK-5817,1 55779U 23028AQ  23308.91059376 -.00000225  00000-0 -11054-4 0  9990,2 55779  70.0005 201.9801 0002673 271.4502  88.6351 14.98324038 38843,6950.211,96.107,573.934,570.219,0.0
55779.0,STARLINK-5817,PAYLOAD,2023-11-05 02:39:38,14.98333638,0.0002624,70.0004,201.4765,266.9901,93.0958,1.9981e-05,1.45e-06,0.0,0 STARLINK-5817,1 55779U 23028AQ  23309.11086656  .00000145  00000-0  19981-4 0  9990,2 55779  70.0004 201.4765 0002624 266.9901  93.0958 14.98333638 38876,6950.182,96.107,573.87,570.223,0.0
55779.0,STARLINK-5817,PAYLOAD,2023-11-05 10:40:18,14.98350255,0.0002848,69.9996,200.6351,267.2068,92.8765,-0.00013482,-1.702e-05,0.0,0 STARLINK-5817,1 55779U 23028AQ  23309.44465700 -.00001702  00000-0 -13482-3 0  9998,2 55779  69.9996 200.6351 0002848 267.2068  92.8765 14.98350255 38924,6950.13,96.106,573.975,570.016,0.0
